{"type": "FeatureCollection", "features": [ {"type": "Feature", "properties": {"norad_id": 34077, "name": "IRIDIUM 33 DEB", "group": "iridium-33-debris", "lat": 56.11754490134889, "lon": 57.76689236145246, "alt_km": 665.2165993330218, "timestamp": "2025-12-10T18:57:00.450206+00:00", "meta": {"OBJECT_NAME": "IRIDIUM 33 DEB", "OBJECT_ID": "1997-051CL", "EPOCH": "2025-12-10T05:52:42.153312", "MEAN_MOTION": 14.64781175, "ECCENTRICITY": 0.0010464, "INCLINATION": 86.3859, "RA_OF_ASC_NODE": 52.6061, "ARG_OF_PERICENTER": 47.385, "MEAN_ANOMALY": 18.7078, "EPHEMERIS_TYPE": 0, "CLASSIFICATION_TYPE": "U", "NORAD_CAT_ID": 34077, "ELEMENT_SET_NO": 999, "REV_AT_EPOCH": 88296, "BSTAR": 0.00232, "MEAN_MOTION_DOT": 0.00012409, "MEAN_MOTION_DDOT": 0}, "tle": {"line1": "1 34077U 97051CL  25344.24493233  .00012409  00000+0  23200-2 0  9995", "line2": "2 34077  86.3859  52.6061 0010464  47.3850  18.7078 14.64781175882962"}}, "geometry": {"type": "Point", "coordinates": [57.76689236145246, 56.11754490134889]}}, {"type": "Feature", "properties": {"norad_id": 34079, "name": "IRIDIUM 33 DEB", "group": "iridium-33-debris", "lat": -82.02144085803455, "lon": -17.322227609600564, "alt_km": 626.4530234434542, "timestamp": "2025-12-10T18:57:00.450217+00:00", "meta": {"OBJECT_NAME": "IRIDIUM 33 DEB", "OBJECT_ID": "1997-051CN", "EPOCH": "2025-12-10T01:46:30.105984", "MEAN_MOTION": 14.83410874, "ECCENTRICITY": 0.0005944, "INCLINATION": 86.3776, "RA_OF_ASC_NODE": 9.8742, "ARG_OF_PERICENTER": 16.6843, "MEAN_ANOMALY": 41.3467, "EPHEMERIS_TYPE": 0, "CLASSIFICATION_TYPE": "U", "NORAD_CAT_ID": 34079, "ELEMENT_SET_NO": 999, "REV_AT_EPOCH": 88938, "BSTAR": 0.0021846749, "MEAN_MOTION_DOT": 0.00017982, "MEAN_MOTION_DDOT": 0}, "tle": {"line1": "1 34079U 97051CN  25344.07395956  .00017982  00000+0  21847-2 0  9997", "line2": "2 34079  86.3776   9.8742 0005944  16.6843  41.3467 14.83410874889383"}}, "geometry": {"type": "Point", "coordinates": [-17.322227609600564, -82.02144085803455]}}, {"type": "Feature", "properties": {"norad_id": 34088, "name": "IRIDIUM 33 DEB", "group": "iridium-33-debris", "lat": -46.28086052561335, "lon": 27.82868299777247, "alt_km": 603.4750340037572, "timestamp": "2025-12-10T18:57:00.450227+00:00", "meta": {"OBJECT_NAME": "IRIDIUM 33 DEB", "OBJECT_ID": "1997-051CX", "EPOCH": "2025-12-10T03:18:56.012256", "MEAN_MOTION": 14.91176406, "ECCENTRICITY": 0.00054818, "INCLINATION": 86.3845, "RA_OF_ASC_NODE": 31.9191, "ARG_OF_PERICENTER": 185.8656, "MEAN_ANOMALY": 232.9656, "EPHEMERIS_TYPE": 0, "CLASSIFICATION_TYPE": "U", "NORAD_CAT_ID": 34088, "ELEMENT_SET_NO": 999, "REV_AT_EPOCH": 88703, "BSTAR": 0.0035919602, "MEAN_MOTION_DOT": 0.0003583, "MEAN_MOTION_DDOT": 0}, "tle": {"line1": "1 34088U 97051CX  25344.13814829  .00035830  00000+0  35920-2 0  9998", "line2": "2 34088  86.3845  31.9191 0005481 185.8656 232.9656 14.91176406887038"}}, "geometry": {"type": "Point", "coordinates": [27.82868299777247, -46.28086052561335]}}, {"type": "Feature", "properties": {"norad_id": 34091, "name": "IRIDIUM 33 DEB", "group": "iridium-33-debris", "lat": -26.105126384977982, "lon": -110.47674453807068, "alt_km": 631.8645949435513, "timestamp": "2025-12-10T18:57:00.450238+00:00", "meta": {"OBJECT_NAME": "IRIDIUM 33 DEB", "OBJECT_ID": "1997-051DA", "EPOCH": "2025-12-10T05:03:05.693184", "MEAN_MOTION": 14.81495206, "ECCENTRICITY": 0.003336, "INCLINATION": 86.3408, "RA_OF_ASC_NODE": 67.9914, "ARG_OF_PERICENTER": 302.3952, "MEAN_ANOMALY": 57.4043, "EPHEMERIS_TYPE": 0, "CLASSIFICATION_TYPE": "U", "NORAD_CAT_ID": 34091, "ELEMENT_SET_NO": 999, "REV_AT_EPOCH": 87829, "BSTAR": 0.0076077, "MEAN_MOTION_DOT": 0.00060664, "MEAN_MOTION_DDOT": 0}, "tle": {"line1": "1 34091U 97051DA  25344.21048256  .00060664  00000+0  76077-2 0  9995", "line2": "2 34091  86.3408  67.9914 0033360 302.3952  57.4043 14.81495206878290"}}, "geometry": {"type": "Point", "coordinates": [-110.47674453807068, -26.105126384977982]}}, {"type": "Feature", "properties": {"norad_id": 34097, "name": "IRIDIUM 33 DEB", "group": "iridium-33-debris", "lat": 64.32057083207638, "lon": 10.212693326143892, "alt_km": 736.2935559142461, "timestamp": "2025-12-10T18:57:00.450249+00:00", "meta": {"OBJECT_NAME": "IRIDIUM 33 DEB", "OBJECT_ID": "1997-051DG", "EPOCH": "2025-12-10T11:57:33.314400", "MEAN_MOTION": 14.34747239, "ECCENTRICITY": 0.0082852, "INCLINATION": 86.2004, "RA_OF_ASC_NODE": 2.3968, "ARG_OF_PERICENTER": 9.4924, "MEAN_ANOMALY": 350.7813, "EPHEMERIS_TYPE": 0, "CLASSIFICATION_TYPE": "U", "NORAD_CAT_ID": 34097, "ELEMENT_SET_NO": 999, "REV_AT_EPOCH": 87087, "BSTAR": 0.0020372, "MEAN_MOTION_DOT": 6.018e-05, "MEAN_MOTION_DDOT": 0}, "tle": {"line1": "1 34097U 97051DG  25344.49830225  .00006018  00000+0  20372-2 0  9996", "line2": "2 34097  86.2004   2.3968 0082852   9.4924 350.7813 14.34747239870877"}}, "geometry": {"type": "Point", "coordinates": [10.212693326143892, 64.32057083207638]}}, {"type": "Feature", "properties": {"norad_id": 34145, "name": "IRIDIUM 33 DEB", "group": "iridium-33-debris", "lat": -78.91933453247918, "lon": -46.37645144476631, "alt_km": 798.1441094009679, "timestamp": "2025-12-10T18:57:00.450259+00:00", "meta": {"OBJECT_NAME": "IRIDIUM 33 DEB", "OBJECT_ID": "1997-051DY", "EPOCH": "2025-12-10T04:20:07.855008", "MEAN_MOTION": 14.42258512, "ECCENTRICITY": 0.0055658, "INCLINATION": 86.2123, "RA_OF_ASC_NODE": 333.6661, "ARG_OF_PERICENTER": 101.9259, "MEAN_ANOMALY": 258.8189, "EPHEMERIS_TYPE": 0, "CLASSIFICATION_TYPE": "U", "NORAD_CAT_ID": 34145, "ELEMENT_SET_NO": 999, "REV_AT_EPOCH": 87601, "BSTAR": 0.0015884, "MEAN_MOTION_DOT": 5.356e-05, "MEAN_MOTION_DDOT": 0}, "tle": {"line1": "1 34145U 97051DY  25344.18064647  .00005356  00000+0  15884-2 0  9999", "line2": "2 34145  86.2123 333.6661 0055658 101.9259 258.8189 14.42258512876012"}}, "geometry": {"type": "Point", "coordinates": [-46.37645144476631, -78.91933453247918]}}, {"type": "Feature", "properties": {"norad_id": 34146, "name": "IRIDIUM 33 DEB", "group": "iridium-33-debris", "lat": -50.66128647978716, "lon": 175.21015163069177, "alt_km": 717.8628511621009, "timestamp": "2025-12-10T18:57:00.450269+00:00", "meta": {"OBJECT_NAME": "IRIDIUM 33 DEB", "OBJECT_ID": "1997-051DZ", "EPOCH": "2025-12-10T11:57:26.106048", "MEAN_MOTION": 14.49023045, "ECCENTRICITY": 0.0025307, "INCLINATION": 86.2837, "RA_OF_ASC_NODE": 350.7905, "ARG_OF_PERICENTER": 229.5827, "MEAN_ANOMALY": 282.1791, "EPHEMERIS_TYPE": 0, "CLASSIFICATION_TYPE": "U", "NORAD_CAT_ID": 34146, "ELEMENT_SET_NO": 999, "REV_AT_EPOCH": 88074, "BSTAR": 0.001403, "MEAN_MOTION_DOT": 5.363e-05, "MEAN_MOTION_DDOT": 0}, "tle": {"line1": "1 34146U 97051DZ  25344.49821882  .00005363  00000+0  14030-2 0  9996", "line2": "2 34146  86.2837 350.7905 0025307 229.5827 282.1791 14.49023045880744"}}, "geometry": {"type": "Point", "coordinates": [175.21015163069177, -50.66128647978716]}}, {"type": "Feature", "properties": {"norad_id": 34159, "name": "IRIDIUM 33 DEB", "group": "iridium-33-debris", "lat": 19.65093678598417, "lon": 50.378641179943365, "alt_km": 762.0393114989383, "timestamp": "2025-12-10T18:57:00.450279+00:00", "meta": {"OBJECT_NAME": "IRIDIUM 33 DEB", "OBJECT_ID": "1997-051EN", "EPOCH": "2025-12-10T10:30:41.699232", "MEAN_MOTION": 14.38484517, "ECCENTRICITY": 0.0025948, "INCLINATION": 86.3511, "RA_OF_ASC_NODE": 49.2228, "ARG_OF_PERICENTER": 295.9422, "MEAN_ANOMALY": 63.9102, "EPHEMERIS_TYPE": 0, "CLASSIFICATION_TYPE": "U", "NORAD_CAT_ID": 34159, "ELEMENT_SET_NO": 999, "REV_AT_EPOCH": 87926, "BSTAR": 0.00060754, "MEAN_MOTION_DOT": 1.881e-05, "MEAN_MOTION_DDOT": 0}, "tle": {"line1": "1 34159U 97051EN  25344.43798263  .00001881  00000+0  60754-3 0  9996", "line2": "2 34159  86.3511  49.2228 0025948 295.9422  63.9102 14.38484517879264"}}, "geometry": {"type": "Point", "coordinates": [50.378641179943365, 19.65093678598417]}}, {"type": "Feature", "properties": {"norad_id": 34350, "name": "IRIDIUM 33 DEB", "group": "iridium-33-debris", "lat": -0.31560627928118445, "lon": 3.633298989078907, "alt_km": 756.4595041994971, "timestamp": "2025-12-10T18:57:00.450289+00:00", "meta": {"OBJECT_NAME": "IRIDIUM 33 DEB", "OBJECT_ID": "1997-051ES", "EPOCH": "2025-12-10T12:52:02.616960", "MEAN_MOTION": 14.45379057, "ECCENTRICITY": 0.0022625, "INCLINATION": 86.3276, "RA_OF_ASC_NODE": 3.7635, "ARG_OF_PERICENTER": 142.0341, "MEAN_ANOMALY": 339.995, "EPHEMERIS_TYPE": 0, "CLASSIFICATION_TYPE": "U", "NORAD_CAT_ID": 34350, "ELEMENT_SET_NO": 999, "REV_AT_EPOCH": 88261, "BSTAR": 0.00047544, "MEAN_MOTION_DOT": 1.696e-05, "MEAN_MOTION_DDOT": 0}, "tle": {"line1": "1 34350U 97051ES  25344.53614140  .00001696  00000+0  47544-3 0  9997", "line2": "2 34350  86.3276   3.7635 0022625 142.0341 339.9950 14.45379057882613"}}, "geometry": {"type": "Point", "coordinates": [3.633298989078907, -0.31560627928118445]}}, {"type": "Feature", "properties": {"norad_id": 34366, "name": "IRIDIUM 33 DEB", "group": "iridium-33-debris", "lat": -85.54824936968501, "lon": -75.19227812451483, "alt_km": 728.2747102139765, "timestamp": "2025-12-10T18:57:00.450299+00:00", "meta": {"OBJECT_NAME": "IRIDIUM 33 DEB", "OBJECT_ID": "1997-051FJ", "EPOCH": "2025-12-10T04:47:12.333120", "MEAN_MOTION": 14.54021911, "ECCENTRICITY": 0.0022308, "INCLINATION": 86.3691, "RA_OF_ASC_NODE": 50.4179, "ARG_OF_PERICENTER": 147.6537, "MEAN_ANOMALY": 272.451, "EPHEMERIS_TYPE": 0, "CLASSIFICATION_TYPE": "U", "NORAD_CAT_ID": 34366, "ELEMENT_SET_NO": 999, "REV_AT_EPOCH": 88145, "BSTAR": 0.0016468, "MEAN_MOTION_DOT": 6.988e-05, "MEAN_MOTION_DDOT": 0}, "tle": {"line1": "1 34366U 97051FJ  25344.19944830  .00006988  00000+0  16468-2 0  9997", "line2": "2 34366  86.3691  50.4179 0022308 147.6537 272.4510 14.54021911881456"}}, "geometry": {"type": "Point", "coordinates": [-75.19227812451483, -85.54824936968501]}}]}